DMSP 5D-3 F16 (USA 172) 
1 28054U 03048A   26177.72544456  .00000019  00000+0  33556-4 0  9999
2 28054  98.9887 201.6168 0008090 116.2924   2.9113 14.14483680170830
METEOSAT-9 (MSG-2)      
1 28912U 05049B   26177.74595801  .00000126  00000+0  00000+0 0  9999
2 28912   9.3825  54.0746 0001990 356.9761 178.0964  1.00277588  7092
DMSP 5D-3 F17 (USA 191) 
1 29522U 06050A   26177.71571781  .00000043  00000+0  44338-4 0  9993
2 29522  98.7378 184.0908 0010797  34.4817 325.7055 14.14994015 13778
FENGYUN 3A              
1 32958U 08026A   26177.70357226  .00000060  00000+0  48929-4 0  9999
2 32958  98.6884 118.3589 0009867  99.1616 261.0677 14.19573029936759
GOES 14                 
1 35491U 09033A   26177.69264211 -.00000313  00000+0  00000+0 0  9997
2 35491   1.7147  82.9383 0002247  18.8457 198.6659  1.00108319  6682
DMSP 5D-3 F18 (USA 210) 
1 35951U 09057A   26177.68771869  .00000217  00000+0  13565-3 0  9991
2 35951  98.9041 158.4363 0010192 219.6637 140.3792 14.14901861860930
EWS-G2 (GOES 15)        
1 36411U 10008A   26177.67824023  .00000031  00000+0  00000+0 0  9991
2 36411   1.3034  82.7227 0005325  43.0608  96.7372  1.00268061 59734
COMS 1                  
1 36744U 10032A   26177.74396469  .00000045  00000+0  00000+0 0  9998
2 36744   4.8292  75.2461 0011925  12.8575 129.9246  0.99166612 51180
FENGYUN 3B              
1 37214U 10059A   26177.71887926  .00000224  00000+0  13917-3 0  9994
2 37214  98.9620 223.7740 0022430 157.0638 312.5589 14.14843168808772
SUOMI NPP               
1 37849U 11061A   26177.71518426  .00000051  00000+0  45032-4 0  9990
2 37849  98.7954 118.5262 0000989 338.9691  21.1444 14.19519203759793
METEOSAT-10 (MSG-3)     
1 38552U 12035B   26177.30926316  .00000000  00000+0  00000+0 0  9995
2 38552   4.6930  60.9813 0001742   8.4001 316.5762  1.00268518 50940
METOP-B                 
1 38771U 12049A   26177.69241264  .00000086  00000+0  58999-4 0  9996
2 38771  98.6500 229.0018 0001640 351.4215   8.6934 14.21441705714618
INSAT-3D                
1 39216U 13038B   26177.69125544 -.00000329  00000+0  00000+0 0  9998
2 39216   1.9505  82.4325 0001147   1.8439 208.9084  1.00271905 47170
FENGYUN 3C              
1 39260U 13052A   26177.72607514  .00000064  00000+0  53872-4 0  9994
2 39260  98.4983 151.1630 0014682   0.9101 359.2098 14.15757085659911
METEOR-M 2              
1 40069U 14037A   26177.78902971 -.00000083  00000+0 -18585-4 0  9993
2 40069  98.5112 153.1870 0006308  20.2423 339.9004 14.21463000620683
HIMAWARI-8              
1 40267U 14060A   26177.69350877 -.00000263  00000+0  00000+0 0  9998
2 40267   0.0132 312.5481 0001217 131.0053 221.5749  1.00277107 42859
FENGYUN 2G              
1 40367U 14090A   26177.68534693 -.00000296  00000+0  00000+0 0  9997
2 40367   5.6634  72.7057 0003579 150.4754  37.9966  1.00269056 42098
